{
    "links": {
        "self": "http://www.neowsapp.com/rest/v1/neo/3582089?api_key=iIulBulltgU6a56xZRHN4H3l9WmuAYTsLGpBGhQ2"
    },
    "id": "3582089",
    "neo_reference_id": "3582089",
    "name": "(2011 UL10)",
    "designation": "2011 UL10",
    "nasa_jpl_url": "http://ssd.jpl.nasa.gov/sbdb.cgi?sstr=3582089",
    "absolute_magnitude_h": 25.1,
    "estimated_diameter": {
        "kilometers": {
            "estimated_diameter_min": 0.0253837029,
            "estimated_diameter_max": 0.0567596853
        },
        "meters": {
            "estimated_diameter_min": 25.3837029364,
            "estimated_diameter_max": 56.7596852866
        },
        "miles": {
            "estimated_diameter_min": 0.0157726969,
            "estimated_diameter_max": 0.0352688224
        },
        "feet": {
            "estimated_diameter_min": 83.279867942,
            "estimated_diameter_max": 186.2194458756
        }
    },
    "is_potentially_hazardous_asteroid": false,
    "close_approach_data": [
        {
            "close_approach_date": "1936-09-23",
            "close_approach_date_full": "1936-Sep-23 23:56",
            "epoch_date_close_approach": -1049933040000,
            "relative_velocity": {
                "kilometers_per_second": "27.7855098661",
                "kilometers_per_hour": "100027.8355181004",
                "miles_per_hour": "62153.4070195663"
            },
            "miss_distance": {
                "astronomical": "0.420788399",
                "lunar": "163.686687211",
                "kilometers": "62949048.21111013",
                "miles": "39114724.784494594"
            },
            "orbiting_body": "Earth"
        },
        {
            "close_approach_date": "2011-10-21",
            "close_approach_date_full": "2011-Oct-21 07:09",
            "epoch_date_close_approach": 1319180940000,
            "relative_velocity": {
                "kilometers_per_second": "15.1069637842",
                "kilometers_per_hour": "54385.0696232802",
                "miles_per_hour": "33792.7672889765"
            },
            "miss_distance": {
                "astronomical": "0.0088878426",
                "lunar": "3.4573707714",
                "kilometers": "1329602.321855262",
                "miles": "826176.5724841356"
            },
            "orbiting_body": "Earth"
        },
        {
            "close_approach_date": "2011-10-21",
            "close_approach_date_full": "2011-Oct-21 11:14",
            "epoch_date_close_approach": 1319195640000,
            "relative_velocity": {
                "kilometers_per_second": "14.2437106548",
                "kilometers_per_hour": "51277.3583573326",
                "miles_per_hour": "31861.7563637548"
            },
            "miss_distance": {
                "astronomical": "0.009914706",
                "lunar": "3.856820634",
                "kilometers": "1483218.89927622",
                "miles": "921629.487483036"
            },
            "orbiting_body": "Moon"
        },
        {
            "close_approach_date": "2054-09-27",
            "close_approach_date_full": "2054-Sep-27 08:37",
            "epoch_date_close_approach": 2674111020000,
            "relative_velocity": {
                "kilometers_per_second": "27.019743597",
                "kilometers_per_hour": "97271.0769491492",
                "miles_per_hour": "60440.4644520978"
            },
            "miss_distance": {
                "astronomical": "0.3959485673",
                "lunar": "154.0239926797",
                "kilometers": "59233062.297631651",
                "miles": "36805718.2079167438"
            },
            "orbiting_body": "Earth"
        }
    ],
    "orbital_data": {
        "orbit_id": "9",
        "orbit_determination_date": "2019-07-19 05:25:26",
        "first_observation_date": "2011-10-16",
        "last_observation_date": "2011-10-20",
        "data_arc_in_days": 4,
        "observations_used": 32,
        "orbit_uncertainty": "7",
        "minimum_orbit_intersection": ".00792736",
        "jupiter_tisserand_invariant": "3.661",
        "epoch_osculation": "2459000.5",
        "eccentricity": ".6100216561384303",
        "semi_major_axis": "1.92992327345593",
        "inclination": ".8373702697469187",
        "ascending_node_longitude": "59.97415786093115",
        "orbital_period": "979.2836237678425",
        "perihelion_distance": ".7526282819622427",
        "perihelion_argument": "35.93134436908508",
        "aphelion_distance": "3.107218264949617",
        "perihelion_time": "2458840.410369229994",
        "mean_anomaly": "58.85145598111716",
        "mean_motion": ".3676156644128103",
        "equinox": "J2000",
        "orbit_class": {
            "orbit_class_type": "APO",
            "orbit_class_description": "Near-Earth asteroid orbits which cross the Earth’s orbit similar to that of 1862 Apollo",
            "orbit_class_range": "a (semi-major axis) > 1.0 AU; q (perihelion) < 1.017 AU"
        }
    },
    "is_sentry_object": false
}